[{"OBJECT_NAME":"GAOFEN-9 05","OBJECT_ID":"2020-058A","EPOCH":"2026-03-10T00:01:50.876256","MEAN_MOTION":15.30293976,"ECCENTRICITY":0.0010522,"INCLINATION":97.2228,"RA_OF_ASC_NODE":111.963,"ARG_OF_PERICENTER":91.0204,"MEAN_ANOMALY":269.2242,"EPHEMERIS_TYPE":0,"CLASSIFICATION_TYPE":"U","NORAD_CAT_ID":46232,"ELEMENT_SET_NO":999,"REV_AT_EPOCH":30843,"BSTAR":0.00025120304,"MEAN_MOTION_DOT":7.299e-5,"MEAN_MOTION_DDOT":0},{"OBJECT_NAME":"STARLINK-34160","OBJECT_ID":"2025-110Z","EPOCH":"2026-03-09T03:33:57.655872","MEAN_MOTION":15.30196666,"ECCENTRICITY":0.00012179,"INCLINATION":53.1618,"RA_OF_ASC_NODE":28.9858,"ARG_OF_PERICENTER":65.2368,"MEAN_ANOMALY":294.8759,"EPHEMERIS_TYPE":0,"CLASSIFICATION_TYPE":"U","NORAD_CAT_ID":64119,"ELEMENT_SET_NO":999,"REV_AT_EPOCH":4580,"BSTAR":0.00092403372,"MEAN_MOTION_DOT":0.00027105,"MEAN_MOTION_DDOT":0}]
